AETHER-2                
1 58299U 23174AV  26068.71793741  .00008341  00000+0  26166-3 0  9990
2 58299  97.3931 151.9008 0008630 139.5247 220.6639 15.33264165129982
STARLINK-32649          
1 62305U 24239E   26068.65314519  .00020751  00000+0  71067-3 0  9990
2 62305  53.1593 193.7144 0000978  72.4885 287.6223 15.30205459 69381
